{"fetched_at":"2026-07-06T18:35:52.738Z","source":"https://celestrak.org/NORAD/elements/gp.php?NAME=SENTINEL&FORMAT=JSON","constellation":"sentinel-5p","records":[{"OBJECT_NAME":"SENTINEL-5P","OBJECT_ID":"2017-064A","EPOCH":"2026-07-06T07:17:08.149056","CLASSIFICATION_TYPE":"U","MEAN_MOTION":14.19522292,"ECCENTRICITY":0.00010986,"INCLINATION":98.7927,"RA_OF_ASC_NODE":129.2992,"ARG_OF_PERICENTER":92.0399,"MEAN_ANOMALY":268.0903,"EPHEMERIS_TYPE":0,"NORAD_CAT_ID":42969,"ELEMENT_SET_NO":999,"REV_AT_EPOCH":45227,"BSTAR":0.000050934622,"MEAN_MOTION_DOT":6.3e-7,"MEAN_MOTION_DDOT":0}]}
